EUTELSAT 8 WEST B       
1 40875U 15039B   25212.44003110 -.00000060  00000+0  00000+0 0  9992
2 40875   0.0639   8.3527 0003649 120.9178 330.4411  1.00271256 36479
EUTELSAT 9B             
1 41310U 16005A   25212.42892124  .00000067  00000+0  00000+0 0  9996
2 41310   0.0341  66.6530 0001295  69.7565 336.2619  1.00272208 34908
EUTELSAT 65 WEST A      
1 41382U 16014A   25212.46374656 -.00000270  00000+0  00000+0 0  9991
2 41382   0.0493 355.8704 0002245 126.3314 288.8489  1.00274557 34310
EUTELSAT 117 WEST B     
1 41589U 16038B   25212.59623867 -.00000004  00000+0  00000+0 0  9996
2 41589   0.0116 215.0459 0000165 129.9098  62.1454  1.00268273 33448
EUTELSAT 172B           
1 42741U 17029B   25212.58221826  .00000001  00000+0  00000+0 0  9992
2 42741   0.0193 146.6112 0000156 285.4255 258.9995  1.00273344 30517
EUTELSAT 7C             
1 44334U 19034B   25212.33532517  .00000054  00000+0  00000+0 0  9993
2 44334   0.0729 189.2727 0003420 284.5632 323.0582  1.00271715  3610
EUTELSAT 5 WEST B       
1 44624U 19067A   25212.33298516 -.00000037  00000+0  00000+0 0  9991
2 44624   0.1041 303.9172 0003092 184.4268 295.7346  1.00271105 21220
EUTELSAT KONNECT        
1 45027U 20005B   25212.10322648  .00000054  00000+0  00000+0 0  9990
2 45027   0.0571  93.0596 0001175  93.4038 166.8591  1.00269855 21102
